<?xml version="1.0" encoding="UTF-8"?>
<ndm xmlns:xsi="http://www.w3.org/2001/XMLSchema-instance" xsi:noNamespaceSchemaLocation="https://sanaregistry.org/r/ndmxml_unqualified/ndmxml-2.0.0-master-2.0.xsd">
<omm id="CCSDS_OMM_VERS" version="2.0">
<header><CREATION_DATE/><ORIGINATOR/></header><body><segment><metadata><OBJECT_NAME>ORBCOMM FM05</OBJECT_NAME><OBJECT_ID>1997-084F</OBJECT_ID><CENTER_NAME>EARTH</CENTER_NAME><REF_FRAME>TEME</REF_FRAME><TIME_SYSTEM>UTC</TIME_SYSTEM><MEAN_ELEMENT_THEORY>SGP4</MEAN_ELEMENT_THEORY></metadata><data><meanElements><EPOCH>2024-12-19T20:38:25.703808</EPOCH><MEAN_MOTION>14.44718656</MEAN_MOTION><ECCENTRICITY>.0000718</ECCENTRICITY><INCLINATION>45.0132</INCLINATION><RA_OF_ASC_NODE>148.3544</RA_OF_ASC_NODE><ARG_OF_PERICENTER>90.2217</ARG_OF_PERICENTER><MEAN_ANOMALY>269.8716</MEAN_ANOMALY></meanElements><tleParameters><EPHEMERIS_TYPE>0</EPHEMERIS_TYPE><CLASSIFICATION_TYPE>U</CLASSIFICATION_TYPE><NORAD_CAT_ID>25117</NORAD_CAT_ID><ELEMENT_SET_NO>999</ELEMENT_SET_NO><REV_AT_EPOCH>41466</REV_AT_EPOCH><BSTAR>.88896E-3</BSTAR><MEAN_MOTION_DOT>.297E-4</MEAN_MOTION_DOT><MEAN_MOTION_DDOT>0</MEAN_MOTION_DDOT></tleParameters></data></segment></body></omm>
<omm id="CCSDS_OMM_VERS" version="2.0">
<header><CREATION_DATE/><ORIGINATOR/></header><body><segment><metadata><OBJECT_NAME>ORBCOMM FM06</OBJECT_NAME><OBJECT_ID>1997-084G</OBJECT_ID><CENTER_NAME>EARTH</CENTER_NAME><REF_FRAME>TEME</REF_FRAME><TIME_SYSTEM>UTC</TIME_SYSTEM><MEAN_ELEMENT_THEORY>SGP4</MEAN_ELEMENT_THEORY></metadata><data><meanElements><EPOCH>2024-12-19T21:30:03.328704</EPOCH><MEAN_MOTION>14.44899862</MEAN_MOTION><ECCENTRICITY>.0000919</ECCENTRICITY><INCLINATION>45.0125</INCLINATION><RA_OF_ASC_NODE>148.1442</RA_OF_ASC_NODE><ARG_OF_PERICENTER>163.2333</ARG_OF_PERICENTER><MEAN_ANOMALY>326.7616</MEAN_ANOMALY></meanElements><tleParameters><EPHEMERIS_TYPE>0</EPHEMERIS_TYPE><CLASSIFICATION_TYPE>U</CLASSIFICATION_TYPE><NORAD_CAT_ID>25118</NORAD_CAT_ID><ELEMENT_SET_NO>999</ELEMENT_SET_NO><REV_AT_EPOCH>41558</REV_AT_EPOCH><BSTAR>.86593E-3</BSTAR><MEAN_MOTION_DOT>.2901E-4</MEAN_MOTION_DOT><MEAN_MOTION_DDOT>0</MEAN_MOTION_DDOT></tleParameters></data></segment></body></omm>
<omm id="CCSDS_OMM_VERS" version="2.0">
<header><CREATION_DATE/><ORIGINATOR/></header><body><segment><metadata><OBJECT_NAME>ORBCOMM FM07</OBJECT_NAME><OBJECT_ID>1997-084H</OBJECT_ID><CENTER_NAME>EARTH</CENTER_NAME><REF_FRAME>TEME</REF_FRAME><TIME_SYSTEM>UTC</TIME_SYSTEM><MEAN_ELEMENT_THEORY>SGP4</MEAN_ELEMENT_THEORY></metadata><data><meanElements><EPOCH>2024-12-19T21:05:08.536128</EPOCH><MEAN_MOTION>14.44772025</MEAN_MOTION><ECCENTRICITY>.0001114</ECCENTRICITY><INCLINATION>45.0119</INCLINATION><RA_OF_ASC_NODE>148.9376</RA_OF_ASC_NODE><ARG_OF_PERICENTER>44.6781</ARG_OF_PERICENTER><MEAN_ANOMALY>315.4159</MEAN_ANOMALY></meanElements><tleParameters><EPHEMERIS_TYPE>0</EPHEMERIS_TYPE><CLASSIFICATION_TYPE>U</CLASSIFICATION_TYPE><NORAD_CAT_ID>25119</NORAD_CAT_ID><ELEMENT_SET_NO>999</ELEMENT_SET_NO><REV_AT_EPOCH>41557</REV_AT_EPOCH><BSTAR>.81888E-3</BSTAR><MEAN_MOTION_DOT>.2727E-4</MEAN_MOTION_DOT><MEAN_MOTION_DDOT>0</MEAN_MOTION_DDOT></tleParameters></data></segment></body></omm>
<omm id="CCSDS_OMM_VERS" version="2.0">
<header><CREATION_DATE/><ORIGINATOR/></header><body><segment><metadata><OBJECT_NAME>ORBCOMM FM03</OBJECT_NAME><OBJECT_ID>1998-007B</OBJECT_ID><CENTER_NAME>EARTH</CENTER_NAME><REF_FRAME>TEME</REF_FRAME><TIME_SYSTEM>UTC</TIME_SYSTEM><MEAN_ELEMENT_THEORY>SGP4</MEAN_ELEMENT_THEORY></metadata><data><meanElements><EPOCH>2024-12-20T01:44:49.197696</EPOCH><MEAN_MOTION>14.33622424</MEAN_MOTION><ECCENTRICITY>.0047599</ECCENTRICITY><INCLINATION>107.9668</INCLINATION><RA_OF_ASC_NODE>127.8348</RA_OF_ASC_NODE><ARG_OF_PERICENTER>204.7953</ARG_OF_PERICENTER><MEAN_ANOMALY>155.0898</MEAN_ANOMALY></meanElements><tleParameters><EPHEMERIS_TYPE>0</EPHEMERIS_TYPE><CLASSIFICATION_TYPE>U</CLASSIFICATION_TYPE><NORAD_CAT_ID>25158</NORAD_CAT_ID><ELEMENT_SET_NO>999</ELEMENT_SET_NO><REV_AT_EPOCH>39850</REV_AT_EPOCH><BSTAR>.10922E-2</BSTAR><MEAN_MOTION_DOT>.294E-4</MEAN_MOTION_DOT><MEAN_MOTION_DDOT>0</MEAN_MOTION_DDOT></tleParameters></data></segment></body></omm>
<omm id="CCSDS_OMM_VERS" version="2.0">
<header><CREATION_DATE/><ORIGINATOR/></header><body><segment><metadata><OBJECT_NAME>ORBCOMM FM04</OBJECT_NAME><OBJECT_ID>1998-007C</OBJECT_ID><CENTER_NAME>EARTH</CENTER_NAME><REF_FRAME>TEME</REF_FRAME><TIME_SYSTEM>UTC</TIME_SYSTEM><MEAN_ELEMENT_THEORY>SGP4</MEAN_ELEMENT_THEORY></metadata><data><meanElements><EPOCH>2024-12-19T21:07:06.536064</EPOCH><MEAN_MOTION>14.33891301</MEAN_MOTION><ECCENTRICITY>.0043172</ECCENTRICITY><INCLINATION>107.9659</INCLINATION><RA_OF_ASC_NODE>130.5351</RA_OF_ASC_NODE><ARG_OF_PERICENTER>202.9875</ARG_OF_PERICENTER><MEAN_ANOMALY>156.9332</MEAN_ANOMALY></meanElements><tleParameters><EPHEMERIS_TYPE>0</EPHEMERIS_TYPE><CLASSIFICATION_TYPE>U</CLASSIFICATION_TYPE><NORAD_CAT_ID>25159</NORAD_CAT_ID><ELEMENT_SET_NO>999</ELEMENT_SET_NO><REV_AT_EPOCH>39851</REV_AT_EPOCH><BSTAR>.95064E-3</BSTAR><MEAN_MOTION_DOT>.255E-4</MEAN_MOTION_DOT><MEAN_MOTION_DDOT>0</MEAN_MOTION_DDOT></tleParameters></data></segment></body></omm>
<omm id="CCSDS_OMM_VERS" version="2.0">
<header><CREATION_DATE/><ORIGINATOR/></header><body><segment><metadata><OBJECT_NAME>ORBCOMM FM17</OBJECT_NAME><OBJECT_ID>1998-046A</OBJECT_ID><CENTER_NAME>EARTH</CENTER_NAME><REF_FRAME>TEME</REF_FRAME><TIME_SYSTEM>UTC</TIME_SYSTEM><MEAN_ELEMENT_THEORY>SGP4</MEAN_ELEMENT_THEORY></metadata><data><meanElements><EPOCH>2024-12-19T13:07:49.488384</EPOCH><MEAN_MOTION>14.34373609</MEAN_MOTION><ECCENTRICITY>.0002393</ECCENTRICITY><INCLINATION>44.9960</INCLINATION><RA_OF_ASC_NODE>25.0028</RA_OF_ASC_NODE><ARG_OF_PERICENTER>332.7011</ARG_OF_PERICENTER><MEAN_ANOMALY>27.3709</MEAN_ANOMALY></meanElements><tleParameters><EPHEMERIS_TYPE>0</EPHEMERIS_TYPE><CLASSIFICATION_TYPE>U</CLASSIFICATION_TYPE><NORAD_CAT_ID>25413</NORAD_CAT_ID><ELEMENT_SET_NO>999</ELEMENT_SET_NO><REV_AT_EPOCH>37737</REV_AT_EPOCH><BSTAR>.63067E-3</BSTAR><MEAN_MOTION_DOT>.1649E-4</MEAN_MOTION_DOT><MEAN_MOTION_DDOT>0</MEAN_MOTION_DDOT></tleParameters></data></segment></body></omm>
<omm id="CCSDS_OMM_VERS" version="2.0">
<header><CREATION_DATE/><ORIGINATOR/></header><body><segment><metadata><OBJECT_NAME>ORBCOMM FM18</OBJECT_NAME><OBJECT_ID>1998-046B</OBJECT_ID><CENTER_NAME>EARTH</CENTER_NAME><REF_FRAME>TEME</REF_FRAME><TIME_SYSTEM>UTC</TIME_SYSTEM><MEAN_ELEMENT_THEORY>SGP4</MEAN_ELEMENT_THEORY></metadata><data><meanElements><EPOCH>2024-12-19T22:00:48.526848</EPOCH><MEAN_MOTION>14.37564571</MEAN_MOTION><ECCENTRICITY>.0003528</ECCENTRICITY><INCLINATION>44.9936</INCLINATION><RA_OF_ASC_NODE>305.2775</RA_OF_ASC_NODE><ARG_OF_PERICENTER>74.7366</ARG_OF_PERICENTER><MEAN_ANOMALY>285.3872</MEAN_ANOMALY></meanElements><tleParameters><EPHEMERIS_TYPE>0</EPHEMERIS_TYPE><CLASSIFICATION_TYPE>U</CLASSIFICATION_TYPE><NORAD_CAT_ID>25414</NORAD_CAT_ID><ELEMENT_SET_NO>999</ELEMENT_SET_NO><REV_AT_EPOCH>37844</REV_AT_EPOCH><BSTAR>.94402E-3</BSTAR><MEAN_MOTION_DOT>.2715E-4</MEAN_MOTION_DOT><MEAN_MOTION_DDOT>0</MEAN_MOTION_DDOT></tleParameters></data></segment></body></omm>
<omm id="CCSDS_OMM_VERS" version="2.0">
<header><CREATION_DATE/><ORIGINATOR/></header><body><segment><metadata><OBJECT_NAME>ORBCOMM FM19</OBJECT_NAME><OBJECT_ID>1998-046C</OBJECT_ID><CENTER_NAME>EARTH</CENTER_NAME><REF_FRAME>TEME</REF_FRAME><TIME_SYSTEM>UTC</TIME_SYSTEM><MEAN_ELEMENT_THEORY>SGP4</MEAN_ELEMENT_THEORY></metadata><data><meanElements><EPOCH>2024-12-19T22:18:19.800576</EPOCH><MEAN_MOTION>14.37379244</MEAN_MOTION><ECCENTRICITY>.0002693</ECCENTRICITY><INCLINATION>44.9947</INCLINATION><RA_OF_ASC_NODE>306.9404</RA_OF_ASC_NODE><ARG_OF_PERICENTER>54.6540</ARG_OF_PERICENTER><MEAN_ANOMALY>47.3623</MEAN_ANOMALY></meanElements><tleParameters><EPHEMERIS_TYPE>0</EPHEMERIS_TYPE><CLASSIFICATION_TYPE>U</CLASSIFICATION_TYPE><NORAD_CAT_ID>25415</NORAD_CAT_ID><ELEMENT_SET_NO>999</ELEMENT_SET_NO><REV_AT_EPOCH>37840</REV_AT_EPOCH><BSTAR>.90558E-3</BSTAR><MEAN_MOTION_DOT>.2589E-4</MEAN_MOTION_DOT><MEAN_MOTION_DDOT>0</MEAN_MOTION_DDOT></tleParameters></data></segment></body></omm>

</ndm>
