ORBCOMM FM05            
1 25117U 97084F   24354.86001972  .00002970  00000+0  88896-3 0  9994
2 25117  45.0132 148.3544 0000718  90.2217 269.8716 14.44718656414665
ORBCOMM FM06            
1 25118U 97084G   24354.89587186  .00002901  00000+0  86593-3 0  9990
2 25118  45.0125 148.1442 0000919 163.2333 326.7616 14.44899862415589
ORBCOMM FM07            
1 25119U 97084H   24354.87857102  .00002727  00000+0  81888-3 0  9995
2 25119  45.0119 148.9376 0001114  44.6781 315.4159 14.44772025415571
ORBCOMM FM03            
1 25158U 98007B   24355.07279164  .00002940  00000+0  10922-2 0  9990
2 25158 107.9668 127.8348 0047599 204.7953 155.0898 14.33622424398509
ORBCOMM FM04            
1 25159U 98007C   24354.87993676  .00002550  00000+0  95064-3 0  9997
2 25159 107.9659 130.5351 0043172 202.9875 156.9332 14.33891301398517
ORBCOMM FM17            
1 25413U 98046A   24354.54710056  .00001649  00000+0  63067-3 0  9992
2 25413  44.9960  25.0028 0002393 332.7011  27.3709 14.34373609377375
ORBCOMM FM18            
1 25414U 98046B   24354.91722832  .00002715  00000+0  94402-3 0  9991
2 25414  44.9936 305.2775 0003528  74.7366 285.3872 14.37564571378447
ORBCOMM FM19            
1 25415U 98046C   24354.92939584  .00002589  00000+0  90558-3 0  9994
2 25415  44.9947 306.9404 0002693  54.6540  47.3623 14.37379244378407
